ONEWEB-0198             
1 48216U 21031G   26196.77087888  .00000278  00000+0  71458-3 0  9999
2 48216  87.8960 284.0143 0002469  99.6118 260.5291 13.14502550252244
ONEWEB-0189             
1 48217U 21031H   26196.78342560  .00000167  00000+0  41478-3 0  9998
2 48217  87.8971 284.0011 0002376 100.1767 259.9631 13.14502314251984
ONEWEB-0196             
1 48218U 21031J   26196.76122410  .00000184  00000+0  46125-3 0  9990
2 48218  87.8967 284.0140 0002189  98.2657 261.8721 13.14503028251985
ONEWEB-0183             
1 48219U 21031K   26196.73584624 -.00000194  00000+0 -55769-3 0  9994
2 48219  87.8966 284.0166 0001975  94.2974 265.8381 13.14502122252074
ONEWEB-0185             
1 48220U 21031L   26196.76199894  .00000186  00000+0  46727-3 0  9993
2 48220  87.8975 284.0071 0002206  89.0994 271.0388 13.14503693252006
ONEWEB-0187             
1 48221U 21031M   26196.74204714 -.00000130  00000+0 -38622-3 0  9996
2 48221  87.8967 284.0246 0002187  96.4251 263.7128 13.14503261252010
ONEWEB-0192             
1 48222U 21031N   26196.78818040  .00000107  00000+0  25453-3 0  9994
2 48222  87.8968 284.0055 0002116 100.4037 259.7332 13.14503201251936
ONEWEB-0219             
1 48223U 21031P   26196.76755245  .00000251  00000+0  64135-3 0  9990
2 48223  87.8975 284.0035 0002192  92.1571 267.9810 13.14503727252135
ONEWEB-0202             
1 48224U 21031Q   26196.74854028 -.00000047  00000+0 -16168-3 0  9996
2 48224  87.8970 284.0190 0002665 106.9229 253.2193 13.14502957252116
ONEWEB-0204             
1 48225U 21031R   26196.78262498  .00000318  00000+0  82294-3 0  9997
2 48225  87.8971 284.0066 0001792  88.4741 271.6594 13.14501446252013
ONEWEB-0205             
1 48226U 21031S   26196.75804871  .00000129  00000+0  31232-3 0  9998
2 48226  87.8975 284.0066 0002305  95.1538 264.9855 13.14502726252026
ONEWEB-0206             
1 48227U 21031T   26196.73108424 -.00000158  00000+0 -45984-3 0  9991
2 48227  87.8972 284.0120 0001884 101.8588 258.2753 13.14502387251975
ONEWEB-0182             
1 48228U 21031U   26196.80243620 -.00000152  00000+0 -44440-3 0  9998
2 48228  87.8968 284.0044 0001916  94.0170 266.1178 13.14504285252195
ONEWEB-0186             
1 48229U 21031V   26196.73742900 -.00000185  00000+0 -53428-3 0  9998
2 48229  87.8978 284.0106 0002136  97.4252 262.7120 13.14503259252132
ONEWEB-0181             
1 48230U 21031W   26196.79133503  .00000085  00000+0  19410-3 0  9999
2 48230  87.8963 284.0243 0002210  98.3344 261.8036 13.14501805251999
ONEWEB-0188             
1 48231U 21031X   26196.75328771  .00000035  00000+0  59100-4 0  9995
2 48231  87.8960 284.0314 0002069  97.7582 262.3783 13.14502411251893
ONEWEB-0220             
1 48232U 21031Y   26196.79294534 -.00000050  00000+0 -16862-3 0  9995
2 48232  87.8978 284.0008 0002195  92.0842 268.0539 13.14493434252167
ONEWEB-0165             
1 48233U 21031Z   26196.74536182 -.00000081  00000+0 -25388-3 0  9996
2 48233  87.8967 284.0212 0002450 101.5816 258.5589 13.14503669252110
ONEWEB-0199             
1 48234U 21031AA  26196.72950406 -.00000204  00000+0 -58428-3 0  9992
2 48234  87.8976 284.0119 0001891 100.8558 259.2785 13.14502236252014
ONEWEB-0203             
1 48235U 21031AB  26196.79610462 -.00000008  00000+0 -56821-4 0  9993
2 48235  87.8975 284.0012 0002080 105.1757 254.9603 13.14501819252035
ONEWEB-0197             
1 48236U 21031AC  26196.77059236  .00000261  00000+0  66950-3 0  9990
2 48236  87.8964 283.9907 0001971  91.3968 268.7387 13.14502348251942
ONEWEB-0194             
1 48237U 21031AD  26196.75011080  .00000028  00000+0  40188-4 0  9991
2 48237  87.8966 284.0178 0001951 105.5020 254.6325 13.14503939252115
ONEWEB-0193             
1 48238U 21031AE  26196.76598032  .00000219  00000+0  55728-3 0  9997
2 48238  87.8967 284.0050 0001816 110.5413 249.5912 13.14502674252062
ONEWEB-0191             
1 48239U 21031AF  26196.77706471  .00000196  00000+0  49298-3 0  9996
2 48239  87.8977 284.0033 0001926  95.5221 264.6129 13.14506187251921
ONEWEB-0195             
1 48240U 21031AG  26196.75407986  .00000087  00000+0  20090-3 0  9993
2 48240  87.8973 284.0084 0002455  99.7003 260.4405 13.14503790251903
ONEWEB-0201             
1 48241U 21031AH  26196.74232045 -.00000124  00000+0 -36806-3 0  9991
2 48241  87.8968 284.0247 0002037  91.0377 269.0986 13.14502784252131
ONEWEB-0207             
1 48242U 21031AJ  26196.79846970 -.00000090  00000+0 -27681-3 0  9998
2 48242  87.8975 283.9997 0002038  91.8114 268.3249 13.14501163252053
ONEWEB-0208             
1 48243U 21031AK  26196.78024802  .00000172  00000+0  43038-3 0  9993
2 48243  87.8971 284.0091 0002370 102.0164 258.1231 13.14502028252066
ONEWEB-0200             
1 48244U 21031AL  26196.74377880 -.00000171  00000+0 -49604-3 0  9993
2 48244  87.8980 284.0056 0002125  98.3881 261.7489 13.14502541251984
ONEWEB-0217             
1 48245U 21031AM  26196.75963390  .00000141  00000+0  34448-3 0  9997
2 48245  87.8977 284.0063 0002416 102.1359 258.0041 13.14502740251935
