OBJECT_NAME,OBJECT_ID,EPOCH,MEAN_MOTION,ECCENTRICITY,INCLINATION,RA_OF_ASC_NODE,ARG_OF_PERICENTER,MEAN_ANOMALY,EPHEMERIS_TYPE,CLASSIFICATION_TYPE,NORAD_CAT_ID,ELEMENT_SET_NO,REV_AT_EPOCH,BSTAR,MEAN_MOTION_DOT,MEAN_MOTION_DDOT
ONEWEB-0198,2021-031G,2026-07-15T18:30:03.935232,13.14502550,.00024691,87.8960,284.0143,99.6118,260.5291,0,U,48216,999,25224,.71458246E-3,.278E-5,0
ONEWEB-0189,2021-031H,2026-07-15T18:48:07.971840,13.14502314,.00023761,87.8971,284.0011,100.1767,259.9631,0,U,48217,999,25198,.41478452E-3,.167E-5,0
ONEWEB-0196,2021-031J,2026-07-15T18:16:09.762240,13.14503028,.00021894,87.8967,284.0140,98.2657,261.8721,0,U,48218,999,25198,.46125215E-3,.184E-5,0
ONEWEB-0183,2021-031K,2026-07-15T17:39:37.115136,13.14502122,.00019755,87.8966,284.0166,94.2974,265.8381,0,U,48219,999,25207,-.55768967E-3,-.194E-5,0
ONEWEB-0185,2021-031L,2026-07-15T18:17:16.708416,13.14503693,.00022062,87.8975,284.0071,89.0994,271.0388,0,U,48220,999,25200,.4672712E-3,.186E-5,0
ONEWEB-0187,2021-031M,2026-07-15T17:48:32.872896,13.14503261,.00021878,87.8967,284.0246,96.4251,263.7128,0,U,48221,999,25201,-.3862162E-3,-.13E-5,0
ONEWEB-0192,2021-031N,2026-07-15T18:54:58.786560,13.14503201,.00021167,87.8968,284.0055,100.4037,259.7332,0,U,48222,999,25193,.25452966E-3,.107E-5,0
ONEWEB-0219,2021-031P,2026-07-15T18:25:16.531680,13.14503727,.00021923,87.8975,284.0035,92.1571,267.9810,0,U,48223,999,25213,.64134807E-3,.251E-5,0
ONEWEB-0202,2021-031Q,2026-07-15T17:57:53.880192,13.14502957,.00026654,87.8970,284.0190,106.9229,253.2193,0,U,48224,999,25211,-.16168125E-3,-.47E-6,0
ONEWEB-0204,2021-031R,2026-07-15T18:46:58.798272,13.14501446,.00017923,87.8971,284.0066,88.4741,271.6594,0,U,48225,999,25201,.82293985E-3,.318E-5,0
ONEWEB-0205,2021-031S,2026-07-15T18:11:35.408544,13.14502726,.00023054,87.8975,284.0066,95.1538,264.9855,0,U,48226,999,25202,.31231952E-3,.129E-5,0
ONEWEB-0206,2021-031T,2026-07-15T17:32:45.678336,13.14502387,.00018842,87.8972,284.0120,101.8588,258.2753,0,U,48227,999,25197,-.45983801E-3,-.158E-5,0
ONEWEB-0182,2021-031U,2026-07-15T19:15:30.487680,13.14504285,.0001916,87.8968,284.0044,94.0170,266.1178,0,U,48228,999,25219,-.44439583E-3,-.152E-5,0
ONEWEB-0186,2021-031V,2026-07-15T17:41:53.865600,13.14503259,.00021363,87.8978,284.0106,97.4252,262.7120,0,U,48229,999,25213,-.5342836E-3,-.185E-5,0
ONEWEB-0181,2021-031W,2026-07-15T18:59:31.346592,13.14501805,.000221,87.8963,284.0243,98.3344,261.8036,0,U,48230,999,25199,.1941045E-3,.85E-6,0
ONEWEB-0188,2021-031X,2026-07-15T18:04:44.058144,13.14502411,.00020699,87.8960,284.0314,97.7582,262.3783,0,U,48231,999,25189,.5910004E-4,.35E-6,0
ONEWEB-0220,2021-031Y,2026-07-15T19:01:50.477376,13.14493434,.00021951,87.8978,284.0008,92.0842,268.0539,0,U,48232,999,25216,-.16862408E-3,-.5E-6,0
ONEWEB-0165,2021-031Z,2026-07-15T17:53:19.261248,13.14503669,.00024505,87.8967,284.0212,101.5816,258.5589,0,U,48233,999,25211,-.25387521E-3,-.81E-6,0
ONEWEB-0199,2021-031AA,2026-07-15T17:30:29.150784,13.14502236,.0001891,87.8976,284.0119,100.8558,259.2785,0,U,48234,999,25201,-.58428274E-3,-.204E-5,0
ONEWEB-0203,2021-031AB,2026-07-15T19:06:23.439168,13.14501819,.00020808,87.8975,284.0012,105.1757,254.9603,0,U,48235,999,25203,-.56820655E-4,-.8E-7,0
ONEWEB-0197,2021-031AC,2026-07-15T18:29:39.179904,13.14502348,.00019719,87.8964,283.9907,91.3968,268.7387,0,U,48236,999,25194,.66950248E-3,.261E-5,0
ONEWEB-0194,2021-031AD,2026-07-15T18:00:09.573120,13.14503939,.00019513,87.8966,284.0178,105.5020,254.6325,0,U,48237,999,25211,.4018794E-4,.28E-6,0
ONEWEB-0193,2021-031AE,2026-07-15T18:23:00.699648,13.14502674,.00018168,87.8967,284.0050,110.5413,249.5912,0,U,48238,999,25206,.55727607E-3,.219E-5,0
ONEWEB-0191,2021-031AF,2026-07-15T18:38:58.390944,13.14506187,.00019267,87.8977,284.0033,95.5221,264.6129,0,U,48239,999,25192,.49298461E-3,.196E-5,0
ONEWEB-0195,2021-031AG,2026-07-15T18:05:52.499904,13.14503790,.00024555,87.8973,284.0084,99.7003,260.4405,0,U,48240,999,25190,.20089581E-3,.87E-6,0
ONEWEB-0201,2021-031AH,2026-07-15T17:48:56.486880,13.14502784,.00020379,87.8968,284.0247,91.0377,269.0986,0,U,48241,999,25213,-.36806472E-3,-.124E-5,0
ONEWEB-0207,2021-031AJ,2026-07-15T19:09:47.782080,13.14501163,.00020388,87.8975,283.9997,91.8114,268.3249,0,U,48242,999,25205,-.27681105E-3,-.9E-6,0
ONEWEB-0208,2021-031AK,2026-07-15T18:43:33.428928,13.14502028,.000237,87.8971,284.0091,102.0164,258.1231,0,U,48243,999,25206,.43038412E-3,.172E-5,0
ONEWEB-0200,2021-031AL,2026-07-15T17:51:02.488320,13.14502541,.00021256,87.8980,284.0056,98.3881,261.7489,0,U,48244,999,25198,-.49604429E-3,-.171E-5,0
ONEWEB-0217,2021-031AM,2026-07-15T18:13:52.368960,13.14502740,.00024164,87.8977,284.0063,102.1359,258.0041,0,U,48245,999,25193,.34448103E-3,.141E-5,0
